[{"OBJECT_NAME":"NOAA 18","OBJECT_ID":"2005-018A","EPOCH":"2026-03-18T05:55:54.902208","MEAN_MOTION":14.13712612,"ECCENTRICITY":0.00150384,"INCLINATION":98.8144,"RA_OF_ASC_NODE":158.234,"ARG_OF_PERICENTER":52.6764,"MEAN_ANOMALY":307.5776,"EPHEMERIS_TYPE":0,"CLASSIFICATION_TYPE":"U","NORAD_CAT_ID":28654,"ELEMENT_SET_NO":999,"REV_AT_EPOCH":7346,"BSTAR":4.7314298e-5,"MEAN_MOTION_DOT":4.6e-7,"MEAN_MOTION_DDOT":0},{"OBJECT_NAME":"NOAA 19","OBJECT_ID":"2009-005A","EPOCH":"2026-03-18T05:31:00.463008","MEAN_MOTION":14.13458411,"ECCENTRICITY":0.00127159,"INCLINATION":98.959,"RA_OF_ASC_NODE":148.0147,"ARG_OF_PERICENTER":288.7072,"MEAN_ANOMALY":71.2719,"EPHEMERIS_TYPE":0,"CLASSIFICATION_TYPE":"U","NORAD_CAT_ID":33591,"ELEMENT_SET_NO":999,"REV_AT_EPOCH":88163,"BSTAR":4.7861722e-5,"MEAN_MOTION_DOT":4.5e-7,"MEAN_MOTION_DDOT":0},{"OBJECT_NAME":"NOAA 20 (JPSS-1)","OBJECT_ID":"2017-073A","EPOCH":"2026-03-18T06:52:43.103136","MEAN_MOTION":14.19538349,"ECCENTRICITY":0.00015547,"INCLINATION":98.7702,"RA_OF_ASC_NODE":17.5888,"ARG_OF_PERICENTER":126.2115,"MEAN_ANOMALY":233.9205,"EPHEMERIS_TYPE":0,"CLASSIFICATION_TYPE":"U","NORAD_CAT_ID":43013,"ELEMENT_SET_NO":999,"REV_AT_EPOCH":43157,"BSTAR":5.4404691e-5,"MEAN_MOTION_DOT":7.1e-7,"MEAN_MOTION_DDOT":0},{"OBJECT_NAME":"NOAA 21 (JPSS-2)","OBJECT_ID":"2022-150A","EPOCH":"2026-03-18T06:01:03.663840","MEAN_MOTION":14.1955446,"ECCENTRICITY":0.00027738,"INCLINATION":98.7564,"RA_OF_ASC_NODE":17.419,"ARG_OF_PERICENTER":91.5134,"MEAN_ANOMALY":268.636,"EPHEMERIS_TYPE":0,"CLASSIFICATION_TYPE":"U","NORAD_CAT_ID":54234,"ELEMENT_SET_NO":999,"REV_AT_EPOCH":17364,"BSTAR":4.4913659e-5,"MEAN_MOTION_DOT":5.1e-7,"MEAN_MOTION_DDOT":0}]
