    [28654, "NOAA 18", "1 28654U 05018A   26077.24716322  .00000046  00000-0  47314-4 0  9991", "2 28654  98.8144 158.2340 0015038  52.6764 307.5776 14.13712612 73464"],
    [33591, "NOAA 19", "1 33591U 09005A   26077.22986647  .00000045  00000-0  47862-4 0  9991", "2 33591  98.9590 148.0147 0012716 288.7072  71.2719 14.13458411881634"],
    [43013, "NOAA 20", "1 43013U 17073A   26077.28660999  .00000071  00000-0  54405-4 0  9990", "2 43013  98.7702  17.5888 0001555 126.2115 233.9205 14.19538349431578"],
    [54234, "NOAA 21", "1 54234U 22150A   26077.25073685  .00000051  00000-0  44914-4 0  9998", "2 54234  98.7564  17.4190 0002774  91.5134 268.6360 14.19554460173645"],
